CCSDS_OMM_VERS,COMMENT,CREATION_DATE,ORIGINATOR,OBJECT_NAME,OBJECT_ID,CENTER_NAME,REF_FRAME,TIME_SYSTEM,MEAN_ELEMENT_THEORY,EPOCH,MEAN_MOTION,ECCENTRICITY,INCLINATION,RA_OF_ASC_NODE,ARG_OF_PERICENTER,MEAN_ANOMALY,EPHEMERIS_TYPE,CLASSIFICATION_TYPE,NORAD_CAT_ID,ELEMENT_SET_NO,REV_AT_EPOCH,BSTAR,MEAN_MOTION_DOT,MEAN_MOTION_DDOT,SEMIMAJOR_AXIS,PERIOD,APOAPSIS,PERIAPSIS,OBJECT_TYPE,RCS_SIZE,COUNTRY_CODE,LAUNCH_DATE,SITE,DECAY_DATE,FILE,GP_ID,TLE_LINE0,TLE_LINE1,TLE_LINE2
"2.0","GENERATED VIA SPACE-TRACK.ORG API","2023-01-01T17:55:23","18 SPCS","BREEZE-M R/B","2009-065B","EARTH","TEME","UTC","SGP4","2023-01-01T13:46:00.750720","2.20878108","0.58912880","20.9981","99.9581","186.6613","229.2521","0","U","36102","999","10553","0.00000000000000","-0.00000176","0.0000000000000","24905.775","651.943","33200.349","3854.931","ROCKET BODY","LARGE","CIS","2009-11-24","TTMTR","","3728759","221922866","0 BREEZE-M R/B","1 36102U 09065B   23001.57361980 -.00000176  00000-0  00000-0 0  9992","2 36102  20.9981  99.9581 5891288 186.6613 229.2521  2.20878108105539"
"2.0","GENERATED VIA SPACE-TRACK.ORG API","2023-01-03T02:40:54","18 SPCS","BREEZE-M R/B","2009-065B","EARTH","TEME","UTC","SGP4","2023-01-02T20:32:42.459936","2.20878173","0.58910040","21.0020","99.7170","187.0953","168.9820","0","U","36102","999","10556","0.00000000000000","-0.00000181","0.0000000000000","24905.770","651.943","33199.634","3855.636","ROCKET BODY","LARGE","CIS","2009-11-24","TTMTR","","3729873","222056072","0 BREEZE-M R/B","1 36102U 09065B   23002.85604699 -.00000181  00000-0  00000-0 0  9997","2 36102  21.0020  99.7170 5891004 187.0953 168.9820  2.20878173105561"
"2.0","GENERATED VIA SPACE-TRACK.ORG API","2023-01-03T00:46:15","18 SPCS","BLOCK DM-SL R/B","2009-067B","EARTH","TEME","UTC","SGP4","2023-01-02T18:55:56.818848","1.73591757","0.43840200","12.8188","32.5085","342.9364","68.1397","0","U","36107","999","8301","0.00000000000000","-0.00000082","0.0000000000000","29244.831","829.532","35687.688","10045.703","ROCKET BODY","LARGE","CIS","2009-11-30","TTMTR","","3729753","222038943","0 BLOCK DM-SL R/B","1 36107U 09067B   23002.78885207 -.00000082  00000-0  00000+0 0  9991","2 36107  12.8188  32.5085 4384020 342.9364  68.1397  1.73591757 83013"
"2.0","GENERATED VIA SPACE-TRACK.ORG API","2023-01-01T17:55:23","18 SPCS","BLOCK DM-SL R/B","2009-067B","EARTH","TEME","UTC","SGP4","2023-01-01T12:49:44.798592","1.73591688","0.43839230","12.8175","32.5965","342.7616","4.2961","0","U","36107","999","8299","0.00000000000000","-0.00000081","0.0000000000000","29244.838","829.533","35687.415","10045.991","ROCKET BODY","LARGE","CIS","2009-11-30","TTMTR","","3728759","221922616","0 BLOCK DM-SL R/B","1 36107U 09067B   23001.53454628 -.00000081  00000-0  00000-0 0  9992","2 36107  12.8175  32.5965 4383923 342.7616   4.2961  1.73591688 82992"
"2.0","GENERATED VIA SPACE-TRACK.ORG API","2023-01-02T02:38:49","18 SPCS","BLOCK DM-SL R/B","2009-067B","EARTH","TEME","UTC","SGP4","2023-01-01T19:57:29.723328","1.73591706","0.43839400","12.8178","32.5756","342.8029","189.9280","0","U","36107","999","8300","0.00000000000000","-0.00000081","0.0000000000000","29244.836","829.533","35687.462","10045.941","ROCKET BODY","LARGE","CIS","2009-11-30","TTMTR","","3728952","221980478","0 BLOCK DM-SL R/B","1 36107U 09067B   23001.83159402 -.00000081  00000-0  00000-0 0  9997","2 36107  12.8178  32.5756 4383940 342.8029 189.9280  1.73591706 83000"
"2.0","GENERATED VIA SPACE-TRACK.ORG API","2023-01-02T17:42:09","18 SPCS","BLOCK DM-SL R/B","2009-067B","EARTH","TEME","UTC","SGP4","2023-01-02T10:26:50.720064","1.73591737","0.43839880","12.8185","32.5333","342.8871","207.2031","0","U","36107","999","8301","0.00000000000000","-0.00000082","0.0000000000000","29244.833","829.533","35687.597","10045.798","ROCKET BODY","LARGE","CIS","2009-11-30","TTMTR","","3729583","222022269","0 BLOCK DM-SL R/B","1 36107U 09067B   23002.43530926 -.00000082  00000-0  00000-0 0  9999","2 36107  12.8185  32.5333 4383988 342.8871 207.2031  1.73591737 83019"
"2.0","GENERATED VIA SPACE-TRACK.ORG API","2023-01-03T02:40:54","18 SPCS","BLOCK DM-SL R/B","2009-067B","EARTH","TEME","UTC","SGP4","2023-01-02T18:55:56.818848","1.73591757","0.43840200","12.8188","32.5085","342.9364","68.1397","0","U","36107","999","8302","0.00000000000000","-0.00000082","0.0000000000000","29244.831","829.532","35687.688","10045.703","ROCKET BODY","LARGE","CIS","2009-11-30","TTMTR","","3729873","222054321","0 BLOCK DM-SL R/B","1 36107U 09067B   23002.78885207 -.00000082  00000-0  00000-0 0  9992","2 36107  12.8188  32.5085 4384020 342.9364  68.1397  1.73591757 83024"
"2.0","GENERATED VIA SPACE-TRACK.ORG API","2023-01-01T23:46:13","18 SPCS","DELTA 4 R/B","2009-068B","EARTH","TEME","UTC","SGP4","2023-01-01T16:32:44.052864","1.19125777","0.80755500","21.8988","150.0115","190.4897","170.6182","0","U","36109","999","5663","0.00202150000000","-0.00000128","0.0000000000000","37589.338","1208.806","61566.661","855.745","ROCKET BODY","LARGE","US","2009-12-06","AFETR","","3728859","221964755","0 DELTA 4 R/B","1 36109U 09068B   23001.68939876 -.00000128  00000-0  20215-2 0  9998","2 36109  21.8988 150.0115 8075550 190.4897 170.6182  1.19125777 56633"
"2.0","GENERATED VIA SPACE-TRACK.ORG API","2023-01-02T02:38:49","18 SPCS","DELTA 4 R/B","2009-068B","EARTH","TEME","UTC","SGP4","2023-01-01T16:32:44.052864","1.19125777","0.80755500","21.8988","150.0115","190.4897","170.6182","0","U","36109","999","5664","0.00202150000000","-0.00000127","0.0000000000000","37589.338","1208.806","61566.661","855.745","ROCKET BODY","LARGE","US","2009-12-06","AFETR","","3728952","221979976","0 DELTA 4 R/B","1 36109U 09068B   23001.68939876 -.00000127  00000-0  20215-2 0  9997","2 36109  21.8988 150.0115 8075550 190.4897 170.6182  1.19125777 56644"
"2.0","GENERATED VIA SPACE-TRACK.ORG API","2023-01-01T17:55:23","18 SPCS","DELTA 4 R/B","2009-068B","EARTH","TEME","UTC","SGP4","2023-01-01T13:40:42.702816","1.19125766","0.80755680","21.8985","150.0300","190.4562","119.3890","0","U","36109","999","5663","0.00197250000000","-0.00000123","0.0000000000000","37589.340","1208.806","61566.733","855.678","ROCKET BODY","LARGE","US","2009-12-06","AFETR","","3728759","221924105","0 DELTA 4 R/B","1 36109U 09068B   23001.56993869 -.00000123  00000-0  19725-2 0  9996","2 36109  21.8985 150.0300 8075568 190.4562 119.3890  1.19125766 56638"
"2.0","GENERATED VIA SPACE-TRACK.ORG API","2023-01-02T17:42:09","18 SPCS","DELTA 4 R/B","2009-068B","EARTH","TEME","UTC","SGP4","2023-01-02T11:48:18.374976","1.19125642","0.80754640","21.9020","149.8880","190.7132","154.7540","0","U","36109","999","5665","0.00165270000000","-0.00000146","0.0000000000000","37589.366","1208.808","61566.389","856.074","ROCKET BODY","LARGE","US","2009-12-06","AFETR","","3729583","222021278","0 DELTA 4 R/B","1 36109U 09068B   23002.49187934 -.00000146  00000-0  16527-2 0  9999","2 36109  21.9020 149.8880 8075464 190.7132 154.7540  1.19125642 56659"
"2.0","GENERATED VIA SPACE-TRACK.ORG API","2023-01-04T03:14:03","18 SPCS","COSMOS 2456 (GLONASS)","2009-070A","EARTH","TEME","UTC","SGP4","2023-01-02T21:43:16.819392","2.13099089","0.00020350","64.4095","114.2034","308.3861","18.1452","0","U","36111","999","10158","0.00000000000000","-0.00000040","0.0000000000000","25508.257","675.742","19135.313","19124.931","PAYLOAD","LARGE","CIS","2009-12-14","TTMTR","","3730926","222103627","0 COSMOS 2456 (GLONASS)","1 36111U 09070A   23002.90505578 -.00000040  00000-0  00000-0 0  9999","2 36111  64.4095 114.2034 0002035 308.3861  18.1452  2.13099089101583"
"2.0","GENERATED VIA SPACE-TRACK.ORG API","2023-01-03T02:40:54","18 SPCS","COSMOS 2456 (GLONASS)","2009-070A","EARTH","TEME","UTC","SGP4","2023-01-02T09:59:56.819040","2.13099117","0.00019820","64.4094","114.2202","308.5461","3.2883","0","U","36111","999","10157","0.00000000000000","-0.00000037","0.0000000000000","25508.254","675.742","19135.175","19125.064","PAYLOAD","LARGE","CIS","2009-12-14","TTMTR","","3729873","222054821","0 COSMOS 2456 (GLONASS)","1 36111U 09070A   23002.41662985 -.00000037  00000-0  00000-0 0  9997","2 36111  64.4094 114.2202 0001982 308.5461   3.2883  2.13099117101571"
"2.0","GENERATED VIA SPACE-TRACK.ORG API","2023-01-01T17:55:23","18 SPCS","COSMOS 2456 (GLONASS)","2009-070A","EARTH","TEME","UTC","SGP4","2023-01-01T11:43:37.619040","2.13098938","0.00024050","64.4090","114.2521","301.7462","18.1584","0","U","36111","999","10155","0.00000000000000","-0.00000027","0.0000000000000","25508.269","675.742","19136.269","19123.999","PAYLOAD","LARGE","CIS","2009-12-14","TTMTR","","3728759","221923117","0 COSMOS 2456 (GLONASS)","1 36111U 09070A   23001.48862985 -.00000027  00000-0  00000-0 0  9994","2 36111  64.4090 114.2521 0002405 301.7462  18.1584  2.13098938101559"
"2.0","GENERATED VIA SPACE-TRACK.ORG API","2023-01-02T23:46:13","18 SPCS","COSMOS 2456 (GLONASS)","2009-070A","EARTH","TEME","UTC","SGP4","2023-01-02T09:59:56.819040","2.13099117","0.00019820","64.4094","114.2202","308.5461","3.2883","0","U","36111","999","10157","0.00000000000000","-0.00000037","0.0000000000000","25508.254","675.742","19135.175","19125.064","PAYLOAD","LARGE","CIS","2009-12-14","TTMTR","","3729708","222037701","0 COSMOS 2456 (GLONASS)","1 36111U 09070A   23002.41662985 -.00000037  00000-0  00000+0 0  9996","2 36111  64.4094 114.2202 0001982 308.5461   3.2883  2.13099117101571"
"2.0","GENERATED VIA SPACE-TRACK.ORG API","2023-01-02T02:38:49","18 SPCS","COSMOS 2457 (GLONASS)","2009-070B","EARTH","TEME","UTC","SGP4","2023-01-01T10:24:02.932128","2.13101313","0.00063480","64.3923","114.1255","158.2195","248.1588","0","U","36112","999","10156","0.00000000000000","-0.00000027","0.0000000000000","25508.079","675.735","19146.137","19113.752","PAYLOAD","LARGE","CIS","2009-12-14","TTMTR","","3728952","221981228","0 COSMOS 2457 (GLONASS)","1 36112U 09070B   23001.43336727 -.00000027  00000-0  00000-0 0  9990","2 36112  64.3923 114.1255 0006348 158.2195 248.1588  2.13101313101567"
